{"type": "FeatureCollection", "features": [ {"type": "Feature", "properties": {"norad_id": 66574, "name": "STARLINK-35812", "group": "last-30-days", "lat": -3.53229975094128, "lon": 37.24556621263605, "alt_km": 454.4599309353043, "timestamp": "2025-12-26T10:30:48.972577+00:00", "meta": {"OBJECT_NAME": "STARLINK-35812", "OBJECT_ID": "2025-268T", "EPOCH": "2025-12-26T04:00:01.998720", "MEAN_MOTION": 15.38439101, "ECCENTRICITY": 9.36e-05, "INCLINATION": 43.0011, "RA_OF_ASC_NODE": 42.601, "ARG_OF_PERICENTER": 266.4572, "MEAN_ANOMALY": 24.2485, "EPHEMERIS_TYPE": 0, "CLASSIFICATION_TYPE": "U", "NORAD_CAT_ID": 66574, "ELEMENT_SET_NO": 999, "REV_AT_EPOCH": 605, "BSTAR": -0.058084, "MEAN_MOTION_DOT": -0.02003528, "MEAN_MOTION_DDOT": 0}, "tle": {"line1": "1 66574U 25268T   25360.16668980 -.02003528  00000+0 -58084-1 0  9998", "line2": "2 66574  43.0011  42.6010 0000936 266.4572  24.2485 15.38439101  6053"}}, "geometry": {"type": "Point", "coordinates": [37.24556621263605, -3.53229975094128]}}, {"type": "Feature", "properties": {"norad_id": 66575, "name": "STARLINK-35810", "group": "last-30-days", "lat": 6.32895961716698, "lon": 47.84469319649325, "alt_km": 450.9348503075189, "timestamp": "2025-12-26T10:30:48.972587+00:00", "meta": {"OBJECT_NAME": "STARLINK-35810", "OBJECT_ID": "2025-268U", "EPOCH": "2025-12-26T04:00:01.998720", "MEAN_MOTION": 15.39283568, "ECCENTRICITY": 0.0001096, "INCLINATION": 43.0003, "RA_OF_ASC_NODE": 42.5684, "ARG_OF_PERICENTER": 256.0036, "MEAN_ANOMALY": 48.3676, "EPHEMERIS_TYPE": 0, "CLASSIFICATION_TYPE": "U", "NORAD_CAT_ID": 66575, "ELEMENT_SET_NO": 999, "REV_AT_EPOCH": 605, "BSTAR": -0.057029, "MEAN_MOTION_DOT": -0.02020832, "MEAN_MOTION_DDOT": 0}, "tle": {"line1": "1 66575U 25268U   25360.16668980 -.02020832  00000+0 -57029-1 0  9994", "line2": "2 66575  43.0003  42.5684 0001096 256.0036  48.3676 15.39283568  6053"}}, "geometry": {"type": "Point", "coordinates": [47.84469319649325, 6.32895961716698]}}, {"type": "Feature", "properties": {"norad_id": 66576, "name": "STARLINK-35814", "group": "last-30-days", "lat": 15.607755789786454, "lon": 58.41678502559967, "alt_km": 447.29108049327533, "timestamp": "2025-12-26T10:30:48.972597+00:00", "meta": {"OBJECT_NAME": "STARLINK-35814", "OBJECT_ID": "2025-268V", "EPOCH": "2025-12-26T04:00:01.998720", "MEAN_MOTION": 15.4013348, "ECCENTRICITY": 0.0001237, "INCLINATION": 43, "RA_OF_ASC_NODE": 42.5338, "ARG_OF_PERICENTER": 259.9169, "MEAN_ANOMALY": 57.5644, "EPHEMERIS_TYPE": 0, "CLASSIFICATION_TYPE": "U", "NORAD_CAT_ID": 66576, "ELEMENT_SET_NO": 999, "REV_AT_EPOCH": 605, "BSTAR": -0.056533, "MEAN_MOTION_DOT": -0.02056303, "MEAN_MOTION_DDOT": 0}, "tle": {"line1": "1 66576U 25268V   25360.16668980 -.02056303  00000+0 -56533-1 0  9996", "line2": "2 66576  43.0000  42.5338 0001237 259.9169  57.5644 15.40133480  6059"}}, "geometry": {"type": "Point", "coordinates": [58.41678502559967, 15.607755789786454]}}, {"type": "Feature", "properties": {"norad_id": 66577, "name": "STARLINK-35815", "group": "last-30-days", "lat": 28.636412834948384, "lon": 76.79161604507829, "alt_km": 441.318043884462, "timestamp": "2025-12-26T10:30:48.972608+00:00", "meta": {"OBJECT_NAME": "STARLINK-35815", "OBJECT_ID": "2025-268W", "EPOCH": "2025-12-26T04:00:01.998720", "MEAN_MOTION": 15.41583453, "ECCENTRICITY": 0.0001418, "INCLINATION": 43.0005, "RA_OF_ASC_NODE": 42.4853, "ARG_OF_PERICENTER": 257.8565, "MEAN_ANOMALY": 79.6092, "EPHEMERIS_TYPE": 0, "CLASSIFICATION_TYPE": "U", "NORAD_CAT_ID": 66577, "ELEMENT_SET_NO": 999, "REV_AT_EPOCH": 600, "BSTAR": -0.053717, "MEAN_MOTION_DOT": -0.02051968, "MEAN_MOTION_DDOT": 0}, "tle": {"line1": "1 66577U 25268W   25360.16668980 -.02051968  00000+0 -53717-1 0  9990", "line2": "2 66577  43.0005  42.4853 0001418 257.8565  79.6092 15.41583453  6001"}}, "geometry": {"type": "Point", "coordinates": [76.79161604507829, 28.636412834948384]}}, {"type": "Feature", "properties": {"norad_id": 66578, "name": "STARLINK-35743", "group": "last-30-days", "lat": 34.918037673589424, "lon": 89.4046800108308, "alt_km": 438.1809428032675, "timestamp": "2025-12-26T10:30:48.972618+00:00", "meta": {"OBJECT_NAME": "STARLINK-35743", "OBJECT_ID": "2025-268X", "EPOCH": "2025-12-26T04:00:01.998720", "MEAN_MOTION": 15.42309296, "ECCENTRICITY": 0.0001471, "INCLINATION": 43.0001, "RA_OF_ASC_NODE": 42.4566, "ARG_OF_PERICENTER": 251.407, "MEAN_ANOMALY": 97.7444, "EPHEMERIS_TYPE": 0, "CLASSIFICATION_TYPE": "U", "NORAD_CAT_ID": 66578, "ELEMENT_SET_NO": 999, "REV_AT_EPOCH": 583, "BSTAR": -0.049906, "MEAN_MOTION_DOT": -0.01964258, "MEAN_MOTION_DDOT": 0}, "tle": {"line1": "1 66578U 25268X   25360.16668980 -.01964258  00000+0 -49906-1 0  9990", "line2": "2 66578  43.0001  42.4566 0001471 251.4070  97.7444 15.42309296  5833"}}, "geometry": {"type": "Point", "coordinates": [89.4046800108308, 34.918037673589424]}}, {"type": "Feature", "properties": {"norad_id": 66579, "name": "STARLINK-35868", "group": "last-30-days", "lat": 39.505097052852406, "lon": 103.08199587033361, "alt_km": 434.7075642689515, "timestamp": "2025-12-26T10:30:48.972629+00:00", "meta": {"OBJECT_NAME": "STARLINK-35868", "OBJECT_ID": "2025-268Y", "EPOCH": "2025-12-26T04:00:01.998720", "MEAN_MOTION": 15.4326158, "ECCENTRICITY": 0.0001304, "INCLINATION": 43.001, "RA_OF_ASC_NODE": 42.43, "ARG_OF_PERICENTER": 265.8295, "MEAN_ANOMALY": 94.2294, "EPHEMERIS_TYPE": 0, "CLASSIFICATION_TYPE": "U", "NORAD_CAT_ID": 66579, "ELEMENT_SET_NO": 999, "REV_AT_EPOCH": 588, "BSTAR": -0.051048, "MEAN_MOTION_DOT": -0.02062766, "MEAN_MOTION_DDOT": 0}, "tle": {"line1": "1 66579U 25268Y   25360.16668980 -.02062766  00000+0 -51048-1 0  9995", "line2": "2 66579  43.0010  42.4300 0001304 265.8295  94.2294 15.43261580  5887"}}, "geometry": {"type": "Point", "coordinates": [103.08199587033361, 39.505097052852406]}}, {"type": "Feature", "properties": {"norad_id": 66580, "name": "STARLINK-35872", "group": "last-30-days", "lat": 42.20728437471347, "lon": 117.5631927810241, "alt_km": 431.9052726077607, "timestamp": "2025-12-26T10:30:48.972640+00:00", "meta": {"OBJECT_NAME": "STARLINK-35872", "OBJECT_ID": "2025-268Z", "EPOCH": "2025-12-26T04:00:01.998720", "MEAN_MOTION": 15.44096169, "ECCENTRICITY": 0.0001358, "INCLINATION": 43.0003, "RA_OF_ASC_NODE": 42.4052, "ARG_OF_PERICENTER": 261.0289, "MEAN_ANOMALY": 109.4854, "EPHEMERIS_TYPE": 0, "CLASSIFICATION_TYPE": "U", "NORAD_CAT_ID": 66580, "ELEMENT_SET_NO": 999, "REV_AT_EPOCH": 600, "BSTAR": -0.049445, "MEAN_MOTION_DOT": -0.02056669, "MEAN_MOTION_DDOT": 0}, "tle": {"line1": "1 66580U 25268Z   25360.16668980 -.02056669  00000+0 -49445-1 0  9990", "line2": "2 66580  43.0003  42.4052 0001358 261.0289 109.4854 15.44096169  6001"}}, "geometry": {"type": "Point", "coordinates": [117.5631927810241, 42.20728437471347]}}, {"type": "Feature", "properties": {"norad_id": 66581, "name": "STARLINK-35744", "group": "last-30-days", "lat": 42.97303964588206, "lon": 132.0959728745708, "alt_km": 429.18867415230034, "timestamp": "2025-12-26T10:30:48.972653+00:00", "meta": {"OBJECT_NAME": "STARLINK-35744", "OBJECT_ID": "2025-268AA", "EPOCH": "2025-12-26T04:00:01.998720", "MEAN_MOTION": 15.44928558, "ECCENTRICITY": 0.0001213, "INCLINATION": 43.0006, "RA_OF_ASC_NODE": 42.3793, "ARG_OF_PERICENTER": 272.3064, "MEAN_ANOMALY": 108.1026, "EPHEMERIS_TYPE": 0, "CLASSIFICATION_TYPE": "U", "NORAD_CAT_ID": 66581, "ELEMENT_SET_NO": 999, "REV_AT_EPOCH": 595, "BSTAR": -0.047408, "MEAN_MOTION_DOT": -0.02032196, "MEAN_MOTION_DDOT": 0}, "tle": {"line1": "1 66581U 25268AA  25360.16668980 -.02032196  00000+0 -47408-1 0  9997", "line2": "2 66581  43.0006  42.3793 0001213 272.3064 108.1026 15.44928558  5958"}}, "geometry": {"type": "Point", "coordinates": [132.0959728745708, 42.97303964588206]}}, {"type": "Feature", "properties": {"norad_id": 66582, "name": "STARLINK-35746", "group": "last-30-days", "lat": 40.74326993135795, "lon": 153.18349680734102, "alt_km": 425.3442771301734, "timestamp": "2025-12-26T10:30:48.972664+00:00", "meta": {"OBJECT_NAME": "STARLINK-35746", "OBJECT_ID": "2025-268AB", "EPOCH": "2025-12-26T04:00:01.998720", "MEAN_MOTION": 15.4638153, "ECCENTRICITY": 0.0001349, "INCLINATION": 43.0003, "RA_OF_ASC_NODE": 42.3439, "ARG_OF_PERICENTER": 271.1086, "MEAN_ANOMALY": 123.7139, "EPHEMERIS_TYPE": 0, "CLASSIFICATION_TYPE": "U", "NORAD_CAT_ID": 66582, "ELEMENT_SET_NO": 999, "REV_AT_EPOCH": 595, "BSTAR": -0.045437, "MEAN_MOTION_DOT": -0.02046676, "MEAN_MOTION_DDOT": 0}, "tle": {"line1": "1 66582U 25268AB  25360.16668980 -.02046676  00000+0 -45437-1 0  9996", "line2": "2 66582  43.0003  42.3439 0001349 271.1086 123.7139 15.46381530  5957"}}, "geometry": {"type": "Point", "coordinates": [153.18349680734102, 40.74326993135795]}}, {"type": "Feature", "properties": {"norad_id": 66583, "name": "STARLINK-35941", "group": "last-30-days", "lat": 37.79446373696149, "lon": 164.41551483428435, "alt_km": 423.3934611761142, "timestamp": "2025-12-26T10:30:48.972675+00:00", "meta": {"OBJECT_NAME": "STARLINK-35941", "OBJECT_ID": "2025-268AC", "EPOCH": "2025-12-26T04:00:01.998720", "MEAN_MOTION": 15.47234558, "ECCENTRICITY": 0.0001539, "INCLINATION": 43.0004, "RA_OF_ASC_NODE": 42.3222, "ARG_OF_PERICENTER": 269.2172, "MEAN_ANOMALY": 133.9609, "EPHEMERIS_TYPE": 0, "CLASSIFICATION_TYPE": "U", "NORAD_CAT_ID": 66583, "ELEMENT_SET_NO": 999, "REV_AT_EPOCH": 600, "BSTAR": -0.044699, "MEAN_MOTION_DOT": -0.02071425, "MEAN_MOTION_DDOT": 0}, "tle": {"line1": "1 66583U 25268AC  25360.16668980 -.02071425  00000+0 -44699-1 0  9996", "line2": "2 66583  43.0004  42.3222 0001539 269.2172 133.9609 15.47234558  6004"}}, "geometry": {"type": "Point", "coordinates": [164.41551483428435, 37.79446373696149]}}]}